CCSDS_OMM_VERS = 2.0
CREATION_DATE  = 
ORIGINATOR     = 

OBJECT_NAME    = AQUA
OBJECT_ID      = 2002-022A
CENTER_NAME    = EARTH
REF_FRAME      = TEME
TIME_SYSTEM    = UTC
MEAN_ELEMENT_THEORY = SGP/SGP4

EPOCH          = 2026-03-20T13:49:38.456256
MEAN_MOTION    = 14.62001186
ECCENTRICITY   = .00007958
INCLINATION    = 98.4194
RA_OF_ASC_NODE = 47.1409
ARG_OF_PERICENTER = 113.3416
MEAN_ANOMALY   = 358.1077

EPHEMERIS_TYPE = 0
CLASSIFICATION_TYPE = U
NORAD_CAT_ID   = 27424
ELEMENT_SET_NO = 999
REV_AT_EPOCH   = 27032
BSTAR          = .18302156E-3
MEAN_MOTION_DOT = .868E-5
MEAN_MOTION_DDOT = 0

CCSDS_OMM_VERS = 2.0
CREATION_DATE  = 
ORIGINATOR     = 

OBJECT_NAME    = CZ-4B R/B
OBJECT_ID      = 2002-024C
CENTER_NAME    = EARTH
REF_FRAME      = TEME
TIME_SYSTEM    = UTC
MEAN_ELEMENT_THEORY = SGP/SGP4

EPOCH          = 2026-03-20T15:07:20.501760
MEAN_MOTION    = 14.14549584
ECCENTRICITY   = .00499192
INCLINATION    = 98.8814
RA_OF_ASC_NODE = 132.9805
ARG_OF_PERICENTER = 353.1890
MEAN_ANOMALY   = 160.4301

EPHEMERIS_TYPE = 0
CLASSIFICATION_TYPE = U
NORAD_CAT_ID   = 27432
ELEMENT_SET_NO = 999
REV_AT_EPOCH   = 23078
BSTAR          = .42639044E-4
MEAN_MOTION_DOT = .38E-6
MEAN_MOTION_DDOT = 0

CCSDS_OMM_VERS = 2.0
CREATION_DATE  = 
ORIGINATOR     = 

OBJECT_NAME    = MIDORI II (ADEOS-II)
OBJECT_ID      = 2002-056A
CENTER_NAME    = EARTH
REF_FRAME      = TEME
TIME_SYSTEM    = UTC
MEAN_ELEMENT_THEORY = SGP/SGP4

EPOCH          = 2026-03-20T14:01:32.558304
MEAN_MOTION    = 14.29293047
ECCENTRICITY   = .00011408
INCLINATION    = 98.7789
RA_OF_ASC_NODE = 38.1386
ARG_OF_PERICENTER = 29.1884
MEAN_ANOMALY   = 330.9361

EPHEMERIS_TYPE = 0
CLASSIFICATION_TYPE = U
NORAD_CAT_ID   = 27597
ELEMENT_SET_NO = 999
REV_AT_EPOCH   = 21185
BSTAR          = .12564732E-3
MEAN_MOTION_DOT = .274E-5
MEAN_MOTION_DDOT = 0

CCSDS_OMM_VERS = 2.0
CREATION_DATE  = 
ORIGINATOR     = 

OBJECT_NAME    = H-2A R/B
OBJECT_ID      = 2002-056E
CENTER_NAME    = EARTH
REF_FRAME      = TEME
TIME_SYSTEM    = UTC
MEAN_ELEMENT_THEORY = SGP/SGP4

EPOCH          = 2026-03-20T09:28:17.430816
MEAN_MOTION    = 14.33767382
ECCENTRICITY   = .00710811
INCLINATION    = 98.3222
RA_OF_ASC_NODE = 39.3539
ARG_OF_PERICENTER = 129.0519
MEAN_ANOMALY   = 343.3622

EPHEMERIS_TYPE = 0
CLASSIFICATION_TYPE = U
NORAD_CAT_ID   = 27601
ELEMENT_SET_NO = 999
REV_AT_EPOCH   = 21564
BSTAR          = .94275985E-4
MEAN_MOTION_DOT = .228E-5
MEAN_MOTION_DDOT = 0

CCSDS_OMM_VERS = 2.0
CREATION_DATE  = 
ORIGINATOR     = 

OBJECT_NAME    = CZ-4B R/B
OBJECT_ID      = 2003-049C
CENTER_NAME    = EARTH
REF_FRAME      = TEME
TIME_SYSTEM    = UTC
MEAN_ELEMENT_THEORY = SGP/SGP4

EPOCH          = 2026-03-20T10:55:22.220256
MEAN_MOTION    = 14.55029562
ECCENTRICITY   = .00477726
INCLINATION    = 98.6889
RA_OF_ASC_NODE = 74.7831
ARG_OF_PERICENTER = 197.5565
MEAN_ANOMALY   = 162.3982

EPHEMERIS_TYPE = 0
CLASSIFICATION_TYPE = U
NORAD_CAT_ID   = 28059
ELEMENT_SET_NO = 999
REV_AT_EPOCH   = 18816
BSTAR          = .78627946E-4
MEAN_MOTION_DOT = .292E-5
MEAN_MOTION_DDOT = 0

CCSDS_OMM_VERS = 2.0
CREATION_DATE  = 
ORIGINATOR     = 

OBJECT_NAME    = CZ-2C R/B
OBJECT_ID      = 2004-012C
CENTER_NAME    = EARTH
REF_FRAME      = TEME
TIME_SYSTEM    = UTC
MEAN_ELEMENT_THEORY = SGP/SGP4

EPOCH          = 2026-03-20T03:47:51.059904
MEAN_MOTION    = 15.65689873
ECCENTRICITY   = .0012937
INCLINATION    = 97.7200
RA_OF_ASC_NODE = 145.4513
ARG_OF_PERICENTER = 266.6030
MEAN_ANOMALY   = 93.3749

EPHEMERIS_TYPE = 0
CLASSIFICATION_TYPE = U
NORAD_CAT_ID   = 28222
ELEMENT_SET_NO = 999
REV_AT_EPOCH   = 20591
BSTAR          = .41046893E-3
MEAN_MOTION_DOT = .41551E-3
MEAN_MOTION_DDOT = 0

CCSDS_OMM_VERS = 2.0
CREATION_DATE  = 
ORIGINATOR     = 

OBJECT_NAME    = SL-16 R/B
OBJECT_ID      = 2004-021B
CENTER_NAME    = EARTH
REF_FRAME      = TEME
TIME_SYSTEM    = UTC
MEAN_ELEMENT_THEORY = SGP/SGP4

EPOCH          = 2026-03-20T10:01:09.482304
MEAN_MOTION    = 14.14593572
ECCENTRICITY   = .00045759
INCLINATION    = 70.9998
RA_OF_ASC_NODE = 209.9789
ARG_OF_PERICENTER = 356.3058
MEAN_ANOMALY   = 3.8030

EPHEMERIS_TYPE = 0
CLASSIFICATION_TYPE = U
NORAD_CAT_ID   = 28353
ELEMENT_SET_NO = 999
REV_AT_EPOCH   = 12435
BSTAR          = -.70820486E-4
MEAN_MOTION_DOT = -.184E-5
MEAN_MOTION_DDOT = 0

CCSDS_OMM_VERS = 2.0
CREATION_DATE  = 
ORIGINATOR     = 

OBJECT_NAME    = CZ-4B R/B
OBJECT_ID      = 2004-035C
CENTER_NAME    = EARTH
REF_FRAME      = TEME
TIME_SYSTEM    = UTC
MEAN_ELEMENT_THEORY = SGP/SGP4

EPOCH          = 2026-03-20T13:48:43.570656
MEAN_MOTION    = 15.29239279
ECCENTRICITY   = .00301103
INCLINATION    = 97.3474
RA_OF_ASC_NODE = 113.6877
ARG_OF_PERICENTER = 291.0268
MEAN_ANOMALY   = 68.7752

EPHEMERIS_TYPE = 0
CLASSIFICATION_TYPE = U
NORAD_CAT_ID   = 28415
ELEMENT_SET_NO = 999
REV_AT_EPOCH   = 18157
BSTAR          = .26128236E-3
MEAN_MOTION_DOT = .7436E-4
MEAN_MOTION_DDOT = 0

CCSDS_OMM_VERS = 2.0
CREATION_DATE  = 
ORIGINATOR     = 

OBJECT_NAME    = CZ-2C R/B
OBJECT_ID      = 2004-046B
CENTER_NAME    = EARTH
REF_FRAME      = TEME
TIME_SYSTEM    = UTC
MEAN_ELEMENT_THEORY = SGP/SGP4

EPOCH          = 2026-03-20T11:51:38.149056
MEAN_MOTION    = 14.26995630
ECCENTRICITY   = .01403907
INCLINATION    = 98.1980
RA_OF_ASC_NODE = 353.8053
ARG_OF_PERICENTER = 122.6605
MEAN_ANOMALY   = 238.8211

EPHEMERIS_TYPE = 0
CLASSIFICATION_TYPE = U
NORAD_CAT_ID   = 28480
ELEMENT_SET_NO = 999
REV_AT_EPOCH   = 11004
BSTAR          = .59770944E-4
MEAN_MOTION_DOT = .122E-5
MEAN_MOTION_DDOT = 0

CCSDS_OMM_VERS = 2.0
CREATION_DATE  = 
ORIGINATOR     = 

OBJECT_NAME    = ARIANE 5 R/B
OBJECT_ID      = 2004-049H
CENTER_NAME    = EARTH
REF_FRAME      = TEME
TIME_SYSTEM    = UTC
MEAN_ELEMENT_THEORY = SGP/SGP4

EPOCH          = 2026-03-20T09:52:34.308480
MEAN_MOTION    = 14.85284101
ECCENTRICITY   = .00832328
INCLINATION    = 98.2641
RA_OF_ASC_NODE = 248.2710
ARG_OF_PERICENTER = 316.9557
MEAN_ANOMALY   = 42.5166

EPHEMERIS_TYPE = 0
CLASSIFICATION_TYPE = U
NORAD_CAT_ID   = 28499
ELEMENT_SET_NO = 999
REV_AT_EPOCH   = 14738
BSTAR          = .75281169E-4
MEAN_MOTION_DOT = .621E-5
MEAN_MOTION_DDOT = 0

CCSDS_OMM_VERS = 2.0
CREATION_DATE  = 
ORIGINATOR     = 

OBJECT_NAME    = CZ-2D R/B
OBJECT_ID      = 2005-024B
CENTER_NAME    = EARTH
REF_FRAME      = TEME
TIME_SYSTEM    = UTC
MEAN_ELEMENT_THEORY = SGP/SGP4

EPOCH          = 2026-03-20T06:56:07.828800
MEAN_MOTION    = 15.61045673
ECCENTRICITY   = .0003983
INCLINATION    = 97.3582
RA_OF_ASC_NODE = 94.8309
ARG_OF_PERICENTER = 16.3856
MEAN_ANOMALY   = 343.7530

EPHEMERIS_TYPE = 0
CLASSIFICATION_TYPE = U
NORAD_CAT_ID   = 28738
ELEMENT_SET_NO = 999
REV_AT_EPOCH   = 14143
BSTAR          = .3545E-3
MEAN_MOTION_DOT = .29756E-3
MEAN_MOTION_DDOT = 0

CCSDS_OMM_VERS = 2.0
CREATION_DATE  = 
ORIGINATOR     = 

OBJECT_NAME    = ALOS (DAICHI)
OBJECT_ID      = 2006-002A
CENTER_NAME    = EARTH
REF_FRAME      = TEME
TIME_SYSTEM    = UTC
MEAN_ELEMENT_THEORY = SGP/SGP4

EPOCH          = 2026-03-20T14:23:01.543488
MEAN_MOTION    = 14.69842797
ECCENTRICITY   = .0000728
INCLINATION    = 98.1238
RA_OF_ASC_NODE = 35.5014
ARG_OF_PERICENTER = 85.1494
MEAN_ANOMALY   = 274.9795

EPHEMERIS_TYPE = 0
CLASSIFICATION_TYPE = U
NORAD_CAT_ID   = 28931
ELEMENT_SET_NO = 999
REV_AT_EPOCH   = 7508
BSTAR          = .21343626E-3
MEAN_MOTION_DOT = .1226E-4
MEAN_MOTION_DDOT = 0

